{"type": "FeatureCollection", "features": [ {"type": "Feature", "properties": {"norad_id": 66653, "name": "2025-274D", "group": "last-30-days", "lat": -58.68888712406061, "lon": 76.0628429503619, "alt_km": 592.7519407093514, "timestamp": "2025-12-07T16:44:02.691416+00:00", "meta": {"OBJECT_NAME": "2025-274D", "OBJECT_ID": "2025-274D", "EPOCH": "2025-12-06T18:44:11.238432", "MEAN_MOTION": 14.918606, "ECCENTRICITY": 0.00112399, "INCLINATION": 97.7389, "RA_OF_ASC_NODE": 268.0815, "ARG_OF_PERICENTER": 276.5881, "MEAN_ANOMALY": 83.4058, "EPHEMERIS_TYPE": 0, "CLASSIFICATION_TYPE": "U", "NORAD_CAT_ID": 66653, "ELEMENT_SET_NO": 999, "REV_AT_EPOCH": 151, "BSTAR": 0.00037475306, "MEAN_MOTION_DOT": 3.734e-05, "MEAN_MOTION_DDOT": 0}, "tle": {"line1": "1 66653U 25274D   25340.78068563  .00003734  00000+0  37475-3 0  9998", "line2": "2 66653  97.7389 268.0815 0011239 276.5881  83.4058 14.91860600  1514"}}, "geometry": {"type": "Point", "coordinates": [76.0628429503619, -58.68888712406061]}}, {"type": "Feature", "properties": {"norad_id": 66654, "name": "JACK E", "group": "last-30-days", "lat": -64.92329810609289, "lon": 72.08894876096632, "alt_km": 591.6003079095572, "timestamp": "2025-12-07T16:44:02.691426+00:00", "meta": {"OBJECT_NAME": "JACK E", "OBJECT_ID": "2025-274E", "EPOCH": "2025-12-06T18:42:35.432064", "MEAN_MOTION": 14.92032592, "ECCENTRICITY": 0.00118202, "INCLINATION": 97.7393, "RA_OF_ASC_NODE": 268.0833, "ARG_OF_PERICENTER": 278.1013, "MEAN_ANOMALY": 81.8865, "EPHEMERIS_TYPE": 0, "CLASSIFICATION_TYPE": "U", "NORAD_CAT_ID": 66654, "ELEMENT_SET_NO": 999, "REV_AT_EPOCH": 151, "BSTAR": 0.00043780536, "MEAN_MOTION_DOT": 4.392e-05, "MEAN_MOTION_DDOT": 0}, "tle": {"line1": "1 66654U 25274E   25340.77957676  .00004392  00000+0  43781-3 0  9998", "line2": "2 66654  97.7393 268.0833 0011820 278.1013  81.8865 14.92032592  1511"}}, "geometry": {"type": "Point", "coordinates": [72.08894876096632, -64.92329810609289]}}, {"type": "Feature", "properties": {"norad_id": 66655, "name": "2025-274F", "group": "last-30-days", "lat": -72.24970124478038, "lon": 63.86055085615224, "alt_km": 595.457445943809, "timestamp": "2025-12-07T16:44:02.691439+00:00", "meta": {"OBJECT_NAME": "2025-274F", "OBJECT_ID": "2025-274F", "EPOCH": "2025-12-06T20:17:23.702208", "MEAN_MOTION": 14.92429092, "ECCENTRICITY": 0.00065248, "INCLINATION": 97.7352, "RA_OF_ASC_NODE": 268.1503, "ARG_OF_PERICENTER": 318.9562, "MEAN_ANOMALY": 41.1166, "EPHEMERIS_TYPE": 0, "CLASSIFICATION_TYPE": "U", "NORAD_CAT_ID": 66655, "ELEMENT_SET_NO": 999, "REV_AT_EPOCH": 152, "BSTAR": 0.0016472003, "MEAN_MOTION_DOT": 0.0001686, "MEAN_MOTION_DDOT": 0}, "tle": {"line1": "1 66655U 25274F   25340.84541322  .00016860  00000+0  16472-2 0  9993", "line2": "2 66655  97.7352 268.1503 0006524 318.9562  41.1166 14.92429092  1528"}}, "geometry": {"type": "Point", "coordinates": [63.86055085615224, -72.24970124478038]}}, {"type": "Feature", "properties": {"norad_id": 66656, "name": "2025-274G", "group": "last-30-days", "lat": -71.59830639192357, "lon": 64.85935826817929, "alt_km": 590.3307864236331, "timestamp": "2025-12-07T16:44:02.691451+00:00", "meta": {"OBJECT_NAME": "2025-274G", "OBJECT_ID": "2025-274G", "EPOCH": "2025-12-06T18:40:49.621440", "MEAN_MOTION": 14.92219802, "ECCENTRICITY": 0.00124648, "INCLINATION": 97.7391, "RA_OF_ASC_NODE": 268.0842, "ARG_OF_PERICENTER": 279.917, "MEAN_ANOMALY": 80.0642, "EPHEMERIS_TYPE": 0, "CLASSIFICATION_TYPE": "U", "NORAD_CAT_ID": 66656, "ELEMENT_SET_NO": 999, "REV_AT_EPOCH": 151, "BSTAR": 0.00049696804, "MEAN_MOTION_DOT": 5.017e-05, "MEAN_MOTION_DDOT": 0}, "tle": {"line1": "1 66656U 25274G   25340.77835210  .00005017  00000+0  49697-3 0  9996", "line2": "2 66656  97.7391 268.0842 0012464 279.9170  80.0642 14.92219802  1514"}}, "geometry": {"type": "Point", "coordinates": [64.85935826817929, -71.59830639192357]}}, {"type": "Feature", "properties": {"norad_id": 66657, "name": "SPIRONE", "group": "last-30-days", "lat": -77.62029589181527, "lon": 50.70592719827432, "alt_km": 591.5461124572666, "timestamp": "2025-12-07T16:44:02.691461+00:00", "meta": {"OBJECT_NAME": "SPIRONE", "OBJECT_ID": "2025-274H", "EPOCH": "2025-12-06T18:39:05.607072", "MEAN_MOTION": 14.92399421, "ECCENTRICITY": 0.00109595, "INCLINATION": 97.7389, "RA_OF_ASC_NODE": 268.0859, "ARG_OF_PERICENTER": 298.7939, "MEAN_ANOMALY": 61.2179, "EPHEMERIS_TYPE": 0, "CLASSIFICATION_TYPE": "U", "NORAD_CAT_ID": 66657, "ELEMENT_SET_NO": 999, "REV_AT_EPOCH": 151, "BSTAR": 0.00048630112, "MEAN_MOTION_DOT": 4.929e-05, "MEAN_MOTION_DDOT": 0}, "tle": {"line1": "1 66657U 25274H   25340.77714823  .00004929  00000+0  48630-3 0  9990", "line2": "2 66657  97.7389 268.0859 0010959 298.7939  61.2179 14.92399421  1511"}}, "geometry": {"type": "Point", "coordinates": [50.70592719827432, -77.62029589181527]}}, {"type": "Feature", "properties": {"norad_id": 66658, "name": "2025-274J", "group": "last-30-days", "lat": -81.77966801280125, "lon": 18.711609499708302, "alt_km": 590.393394640022, "timestamp": "2025-12-07T16:44:02.691473+00:00", "meta": {"OBJECT_NAME": "2025-274J", "OBJECT_ID": "2025-274J", "EPOCH": "2025-12-06T18:37:23.200608", "MEAN_MOTION": 14.92572861, "ECCENTRICITY": 0.0011554, "INCLINATION": 97.7391, "RA_OF_ASC_NODE": 268.087, "ARG_OF_PERICENTER": 301.9626, "MEAN_ANOMALY": 58.0469, "EPHEMERIS_TYPE": 0, "CLASSIFICATION_TYPE": "U", "NORAD_CAT_ID": 66658, "ELEMENT_SET_NO": 999, "REV_AT_EPOCH": 151, "BSTAR": 0.00047014759, "MEAN_MOTION_DOT": 4.785e-05, "MEAN_MOTION_DDOT": 0}, "tle": {"line1": "1 66658U 25274J   25340.77596297  .00004785  00000+0  47015-3 0  9990", "line2": "2 66658  97.7391 268.0870 0011554 301.9626  58.0469 14.92572861  1517"}}, "geometry": {"type": "Point", "coordinates": [18.711609499708302, -81.77966801280125]}}, {"type": "Feature", "properties": {"norad_id": 66659, "name": "JACK K", "group": "last-30-days", "lat": -81.00636837324436, "lon": -31.769739257241355, "alt_km": 588.9375447531993, "timestamp": "2025-12-07T16:44:02.691484+00:00", "meta": {"OBJECT_NAME": "JACK K", "OBJECT_ID": "2025-274K", "EPOCH": "2025-12-06T18:35:34.616544", "MEAN_MOTION": 14.92758727, "ECCENTRICITY": 0.00122721, "INCLINATION": 97.7393, "RA_OF_ASC_NODE": 268.089, "ARG_OF_PERICENTER": 303.0138, "MEAN_ANOMALY": 56.9902, "EPHEMERIS_TYPE": 0, "CLASSIFICATION_TYPE": "U", "NORAD_CAT_ID": 66659, "ELEMENT_SET_NO": 999, "REV_AT_EPOCH": 151, "BSTAR": 0.00046843294, "MEAN_MOTION_DOT": 4.791e-05, "MEAN_MOTION_DDOT": 0}, "tle": {"line1": "1 66659U 25274K   25340.77470621  .00004791  00000+0  46843-3 0  9998", "line2": "2 66659  97.7393 268.0890 0012272 303.0138  56.9902 14.92758727  1517"}}, "geometry": {"type": "Point", "coordinates": [-31.769739257241355, -81.00636837324436]}}, {"type": "Feature", "properties": {"norad_id": 66660, "name": "K-HERO", "group": "last-30-days", "lat": -76.98236598725136, "lon": -54.96667055025753, "alt_km": 587.7262495657442, "timestamp": "2025-12-07T16:44:02.691494+00:00", "meta": {"OBJECT_NAME": "K-HERO", "OBJECT_ID": "2025-274L", "EPOCH": "2025-12-06T18:34:07.333536", "MEAN_MOTION": 14.92907232, "ECCENTRICITY": 0.00129299, "INCLINATION": 97.7397, "RA_OF_ASC_NODE": 268.0907, "ARG_OF_PERICENTER": 303.6775, "MEAN_ANOMALY": 56.3211, "EPHEMERIS_TYPE": 0, "CLASSIFICATION_TYPE": "U", "NORAD_CAT_ID": 66660, "ELEMENT_SET_NO": 999, "REV_AT_EPOCH": 151, "BSTAR": 0.00046203975, "MEAN_MOTION_DOT": 4.743e-05, "MEAN_MOTION_DDOT": 0}, "tle": {"line1": "1 66660U 25274L   25340.77369599  .00004743  00000+0  46204-3 0  9999", "line2": "2 66660  97.7397 268.0907 0012929 303.6775  56.3211 14.92907232  1518"}}, "geometry": {"type": "Point", "coordinates": [-54.96667055025753, -76.98236598725136]}}, {"type": "Feature", "properties": {"norad_id": 66661, "name": "SNUGLITE-III", "group": "last-30-days", "lat": -71.78287664937048, "lon": -66.59069139467663, "alt_km": 586.5863602430545, "timestamp": "2025-12-07T16:44:02.691504+00:00", "meta": {"OBJECT_NAME": "SNUGLITE-III", "OBJECT_ID": "2025-274M", "EPOCH": "2025-12-06T18:32:37.955328", "MEAN_MOTION": 14.93056475, "ECCENTRICITY": 0.00135238, "INCLINATION": 97.7395, "RA_OF_ASC_NODE": 268.0919, "ARG_OF_PERICENTER": 304.5866, "MEAN_ANOMALY": 55.4077, "EPHEMERIS_TYPE": 0, "CLASSIFICATION_TYPE": "U", "NORAD_CAT_ID": 66661, "ELEMENT_SET_NO": 999, "REV_AT_EPOCH": 151, "BSTAR": 0.00043653793, "MEAN_MOTION_DOT": 4.496e-05, "MEAN_MOTION_DDOT": 0}, "tle": {"line1": "1 66661U 25274M   25340.77266152  .00004496  00000+0  43654-3 0  9992", "line2": "2 66661  97.7395 268.0919 0013523 304.5866  55.4077 14.93056475  1517"}}, "geometry": {"type": "Point", "coordinates": [-66.59069139467663, -71.78287664937048]}}, {"type": "Feature", "properties": {"norad_id": 66662, "name": "2025-274N", "group": "last-30-days", "lat": -69.54292103420744, "lon": -69.61673199648405, "alt_km": 585.9675953577334, "timestamp": "2025-12-07T16:44:02.691513+00:00", "meta": {"OBJECT_NAME": "2025-274N", "OBJECT_ID": "2025-274N", "EPOCH": "2025-12-06T18:32:00.890592", "MEAN_MOTION": 14.93103897, "ECCENTRICITY": 0.00140226, "INCLINATION": 97.7392, "RA_OF_ASC_NODE": 268.0924, "ARG_OF_PERICENTER": 303.873, "MEAN_ANOMALY": 56.1155, "EPHEMERIS_TYPE": 0, "CLASSIFICATION_TYPE": "U", "NORAD_CAT_ID": 66662, "ELEMENT_SET_NO": 999, "REV_AT_EPOCH": 151, "BSTAR": 0.00028819991, "MEAN_MOTION_DOT": 2.952e-05, "MEAN_MOTION_DDOT": 0}, "tle": {"line1": "1 66662U 25274N   25340.77223253  .00002952  00000+0  28820-3 0  9991", "line2": "2 66662  97.7392 268.0924 0014022 303.8730  56.1155 14.93103897  1514"}}, "geometry": {"type": "Point", "coordinates": [-69.61673199648405, -69.54292103420744]}}]}